NORAD_CAT_ID,OBJECT_NAME,OBJECT_TYPE,EPOCH,MEAN_MOTION,ECCENTRICITY,INCLINATION,RA_OF_ASC_NODE,ARG_OF_PERICENTER,MEAN_ANOMALY,BSTAR,MEAN_MOTION_DOT,MEAN_MOTION_DDOT,TLE_LINE0,TLE_LINE1,TLE_LINE2,SEMIMAJOR_AXIS,PERIOD,APOGEE,PERIGEE,DECAYED
50823.0,STARLINK-3334,PAYLOAD,2022-03-12 14:00:01,15.50293419,0.0002114,53.2177,240.2818,23.8201,51.4854,-0.013572,-0.00723715,0.0,0 STARLINK-3334,1 50823U 22001W   22071.58334491 -.00723715  00000-0 -13572-1 0  9998,2 50823  53.2177 240.2818 0002114  23.8201  51.4854 15.50293419 11484,6794.005999999999,92.886,417.307,414.434,0.0
50823.0,STARLINK-3334,PAYLOAD,2022-03-12 22:00:00,15.4977976,0.0001501999999999,53.2173,238.6915,38.7458,97.6505,-0.013702,-0.00717758,0.0,0 STARLINK-3334,1 50823U 22001W   22071.91667824 -.00717758  00000-0 -13702-1 0  9999,2 50823  53.2173 238.6915 0001502  38.7458  97.6505 15.49779760  3705,6795.507,92.916,418.392,416.351,0.0
50823.0,STARLINK-3334,PAYLOAD,2022-03-13 06:00:00,15.49129443,0.000165,53.2174,237.0983,40.4628,156.4355,-0.0049366,-0.00264257,0.0,0 STARLINK-3334,1 50823U 22001W   22072.25001157 -.00264257  00000-0 -49366-2 0  9995,2 50823  53.2174 237.0983 0001650  40.4628 156.4355 15.49129443 11586,6797.408,92.955,420.395,418.152,0.0
50823.0,STARLINK-3334,PAYLOAD,2022-03-13 14:00:01,15.48948717,0.0001688,53.2175,235.5082,43.3303,213.4538,-1.9721e-05,-1.529e-05,0.0,0 STARLINK-3334,1 50823U 22001W   22072.58334491 -.00001529  00000-0 -19721-4 0  9996,2 50823  53.2175 235.5082 0001688  43.3303 213.4538 15.48948717 11638,6797.937,92.966,420.95,418.655,0.0
50823.0,STARLINK-3334,PAYLOAD,2022-03-13 20:00:01,15.48980497,0.0001745,53.2148,234.305,41.1731,170.5868,0.00031114,0.00016695,0.0,0 STARLINK-3334,1 50823U 22001W   22072.83334491  .00016695  00000-0  31114-3 0  9991,2 50823  53.2148 234.3050 0001745  41.1731 170.5868 15.48980497 11679,6797.844,92.964,420.895,418.523,0.0
50823.0,STARLINK-3334,PAYLOAD,2022-03-13 22:00:01,15.48976383,0.0001726,53.2152,233.9073,38.8144,277.9697,0.00056191,0.00030561,0.0,0 STARLINK-3334,1 50823U 22001W   22072.91668981  .00030561  00000-0  56191-3 0  9994,2 50823  53.2152 233.9073 0001726  38.8144 277.9697 15.48976383  3698,6797.856,92.965,420.895,418.548,0.0
50823.0,STARLINK-3334,PAYLOAD,2022-03-14 04:00:00,15.49066951,0.0001654,53.2161,232.7124,38.9636,232.7101,0.00097743,0.00053823,0.0,0 STARLINK-3334,1 50823U 22001W   22073.16667824  .00053823  00000-0  97743-3 0  9991,2 50823  53.2161 232.7124 0001654  38.9636 232.7101 15.49066951 11723,6797.590999999999,92.959,420.581,418.332,0.0
50823.0,STARLINK-3334,PAYLOAD,2022-03-14 14:00:01,15.49190446,0.0001736,53.217,230.7235,37.3589,39.374,-0.00077161,-0.00042948,0.0,0 STARLINK-3334,1 50823U 22001W   22073.58335648 -.00042948  00000-0 -77161-3 0  9993,2 50823  53.2170 230.7235 0001736  37.3589  39.3740 15.49190446 11799,6797.23,92.952,420.275,417.915,0.0
50823.0,STARLINK-3334,PAYLOAD,2022-03-14 20:00:01,15.49151929,0.0001827,53.2172,229.5316,31.5893,0.0938,-0.0019322,-0.00105883,0.0,0 STARLINK-3334,1 50823U 22001W   22073.83334491 -.00105883  00000-0 -19322-2 0  9998,2 50823  53.2172 229.5316 0001827  31.5893   0.0938 15.49151929 11834,6797.343000000003,92.954,420.45,417.966,0.0
50823.0,STARLINK-3334,PAYLOAD,2022-03-14 22:00:00,15.49158808,0.0001858,53.2169,229.1336,30.8974,105.7858,-0.0031253,-0.00169654,0.0,0 STARLINK-3334,1 50823U 22001W   22073.91667824 -.00169654  00000-0 -31253-2 0  9999,2 50823  53.2169 229.1336 0001858  30.8974 105.7858 15.49158808 11842,6797.323,92.954,420.451,417.925,0.0
50823.0,STARLINK-3334,PAYLOAD,2022-03-15 02:00:01,15.49168024,0.0001721999999999,53.217,228.337,29.1841,317.4893,-0.0066313,-0.00351424,0.0,0 STARLINK-3334,1 50823U 22001W   22074.08334491 -.00351424  00000-0 -66313-2 0  9992,2 50823  53.2170 228.3370 0001722  29.1841 317.4893 15.49168024 11872,6797.295999999999,92.953,420.331,417.99,0.0
50823.0,STARLINK-3334,PAYLOAD,2022-03-15 22:00:00,15.48639754,0.0002033,53.2167,224.3617,32.8746,283.0163,0.0043953999999999,0.00246004,0.0,0 STARLINK-3334,1 50823U 22001W   22074.91667824  .00246004  00000-0  43954-2 0  9994,2 50823  53.2167 224.3617 0002033  32.8746 283.0163 15.48639754 11992,6798.840999999999,92.985,422.089,419.324,0.0
50823.0,STARLINK-3334,PAYLOAD,2022-03-16 14:00:01,15.48944366,0.0001904,53.217,221.1804,35.1801,39.8709,-0.00080672,-0.0004449,0.0,0 STARLINK-3334,1 50823U 22001W   22075.58334491 -.00044490  00000-0 -80672-3 0  9995,2 50823  53.2170 221.1804 0001904  35.1801  39.8709 15.48944366 12108,6797.95,92.967,421.109,418.521,0.0
50823.0,STARLINK-3334,PAYLOAD,2022-03-16 20:00:01,15.48908797,0.0002021,53.2169,219.9884,30.2125,359.6779,0.00049813,0.00026964,0.0,0 STARLINK-3334,1 50823U 22001W   22075.83334491  .00026964  00000-0  49813-3 0  9999,2 50823  53.2169 219.9884 0002021  30.2125 359.6779 15.48908797  3686,6798.054,92.969,421.293,418.545,0.0
50823.0,STARLINK-3334,PAYLOAD,2022-03-17 06:00:00,15.48886951,0.0001757,53.2169,217.9978,30.3257,164.2559,0.0010854,0.00059483,0.0,0 STARLINK-3334,1 50823U 22001W   22076.25001157  .00059483  00000-0  10854-2 0  9990,2 50823  53.2169 217.9978 0001757  30.3257 164.2559 15.48886951 12201,6798.118,92.97,421.177,418.788,0.0
50823.0,STARLINK-3334,PAYLOAD,2022-03-17 14:00:01,15.48950963,0.0001889,53.2175,216.4086,28.566,225.7327,0.00025695,0.00013689,0.0,0 STARLINK-3334,1 50823U 22001W   22076.58334491  .00013689  00000-0  25695-3 0  9994,2 50823  53.2175 216.4086 0001889  28.5660 225.7327 15.48950963  3688,6797.931,92.966,421.08,418.512,0.0
50823.0,STARLINK-3334,PAYLOAD,2022-03-17 22:00:00,15.4896746,0.0002067,53.2175,214.8183,23.2787,290.8155,-0.0004293,-0.00023966,0.0,0 STARLINK-3334,1 50823U 22001W   22076.91667824 -.00023966  00000-0 -42930-3 0  9992,2 50823  53.2175 214.8183 0002067  23.2787 290.8155 15.48967460  3681,6797.882,92.965,421.152,418.342,0.0
50823.0,STARLINK-3334,PAYLOAD,2022-03-18 08:00:01,15.48936898,0.0001801,53.2183,212.8279,31.7422,87.1291,0.0012518,0.00068876,0.0,0 STARLINK-3334,1 50823U 22001W   22077.33334491  .00068876  00000-0  12518-2 0  9995,2 50823  53.2183 212.8279 0001801  31.7422  87.1291 15.48936898 12374,6797.972,92.967,421.061,418.612,0.0
50823.0,STARLINK-3334,PAYLOAD,2022-03-18 14:00:01,15.48998354,0.0002031,53.2183,211.6365,28.0498,45.6644,-0.00086472,-0.00047728,0.0,0 STARLINK-3334,1 50823U 22001W   22077.58334491 -.00047728  00000-0 -86472-3 0  9998,2 50823  53.2183 211.6365 0002031  28.0498  45.6644 15.48998354  3696,6797.792,92.963,421.038,418.276,0.0
50823.0,STARLINK-3334,PAYLOAD,2022-03-18 22:00:00,15.49004647,0.0002199,53.2178,210.0495,29.2533,104.302,-0.0011052999999999,-0.00060796,0.0,0 STARLINK-3334,1 50823U 22001W   22077.91667824 -.00060796  00000-0 -11053-2 0  9996,2 50823  53.2178 210.0495 0002199  29.2533 104.3020 15.49004647 12465,6797.774,92.963,421.133,418.144,0.0
50823.0,STARLINK-3334,PAYLOAD,2022-03-19 02:00:01,15.49095341,0.0001968,53.218,209.255,31.5983,311.9224,-0.0073658,-0.00387549,0.0,0 STARLINK-3334,1 50823U 22001W   22078.08335648 -.00387549  00000-0 -73658-2 0  9998,2 50823  53.2180 209.2550 0001968  31.5983 311.9224 15.49095341 12494,6797.5080000000025,92.957,420.711,418.035,0.0
50823.0,STARLINK-3334,PAYLOAD,2022-03-19 14:00:01,15.48761372,0.0002109,53.2175,206.8767,26.1507,226.8811,-0.014238,-0.00719395,0.0,0 STARLINK-3334,1 50823U 22001W   22078.58334491 -.00719395  00000-0 -14238-1 0  9994,2 50823  53.2175 206.8767 0002109  26.1507 226.8811 15.48761372 12568,6798.485,92.978,421.784,418.917,0.0
50823.0,STARLINK-3334,PAYLOAD,2022-03-19 22:00:01,15.48254083,0.0001709,53.2173,205.2891,35.4893,276.7455,-0.014596,-0.00723988,0.0,0 STARLINK-3334,1 50823U 22001W   22078.91668981 -.00723988  00000-0 -14596-1 0  9995,2 50823  53.2173 205.2891 0001709  35.4893 276.7455 15.48254083 12613,6799.97,93.008,422.997,420.673,0.0
50823.0,STARLINK-3334,PAYLOAD,2022-03-20 14:00:01,15.47235058,0.0002484,53.2175,202.1179,7.5105,61.3244,-0.01515,-0.00725169,0.0,0 STARLINK-3334,1 50823U 22001W   22079.58334491 -.00725169  00000-0 -15150-1 0  9995,2 50823  53.2175 202.1179 0002484   7.5105  61.3244 15.47235058  3666,6802.956,93.069,426.511,423.131,0.0
50823.0,STARLINK-3334,PAYLOAD,2022-03-20 22:00:01,15.46728098,0.0001312,53.2172,200.5335,356.4316,129.8804,-0.015541,-0.00730243,0.0,0 STARLINK-3334,1 50823U 22001W   22079.91668981 -.00730243  00000-0 -15541-1 0  9999,2 50823  53.2172 200.5335 0001312 356.4316 129.8804 15.46728098 12772,6804.441999999999,93.1,427.2,425.414,0.0
50823.0,STARLINK-3334,PAYLOAD,2022-03-21 14:00:01,15.45700917,0.0001887,53.2173,197.3695,37.493,201.7455,-0.015825,-0.00718608,0.0,0 STARLINK-3334,1 50823U 22001W   22080.58334491 -.00718608  00000-0 -15825-1 0  9996,2 50823  53.2173 197.3695 0001887  37.4930 201.7455 15.45700917  3670,6807.456,93.162,430.606,428.037,0.0
50823.0,STARLINK-3334,PAYLOAD,2022-03-21 22:00:00,15.45193827,0.0001361999999999,53.2173,195.7888,55.9634,238.8494,-0.016219,-0.00723282,0.0,0 STARLINK-3334,1 50823U 22001W   22080.91667824 -.00723282  00000-0 -16219-1 0  9994,2 50823  53.2173 195.7888 0001362  55.9634 238.8494 15.45193827  3670,6808.946,93.192,431.73800000000006,429.883,0.0
50823.0,STARLINK-3334,PAYLOAD,2022-03-22 06:00:00,15.44680452,0.0001435,53.2174,194.2083,44.5407,305.2363,-0.016366,-0.00717552,0.0,0 STARLINK-3334,1 50823U 22001W   22081.25001157 -.00717552  00000-0 -16366-1 0  9999,2 50823  53.2174 194.2083 0001435  44.5407 305.2363 15.44680452 12987,6810.454000000002,93.223,433.296,431.342,0.0
50823.0,STARLINK-3334,PAYLOAD,2022-03-22 14:00:01,15.44173809,0.0001641,53.2174,192.6324,37.4815,6.6426,-0.0167849999999999,-0.00722885,0.0,0 STARLINK-3334,1 50823U 22001W   22081.58334491 -.00722885  00000-0 -16785-1 0  9995,2 50823  53.2174 192.6324 0001641  37.4815   6.6426 15.44173809  3693,6811.944,93.254,434.927,432.691,0.0
